OBJECT_NAME,OBJECT_ID,EPOCH,MEAN_MOTION,ECCENTRICITY,INCLINATION,RA_OF_ASC_NODE,ARG_OF_PERICENTER,MEAN_ANOMALY,EPHEMERIS_TYPE,CLASSIFICATION_TYPE,NORAD_CAT_ID,ELEMENT_SET_NO,REV_AT_EPOCH,BSTAR,MEAN_MOTION_DOT,MEAN_MOTION_DDOT
STARLINK-3907,2022-049BC,2026-06-30T14:20:55.828032,15.08829142,.0001047,53.1595,261.8745,86.9095,273.2017,0,U,52501,999,22944,.78737E-5,-.163E-5,0
STARLINK-3912,2022-049BD,2026-06-30T14:11:41.389728,15.08834607,.0001129,53.1597,252.1363,92.2517,267.8604,0,U,52502,999,22957,.37317E-4,.306E-5,0
STARLINK-3861,2022-049BE,2026-06-30T10:45:01.506240,15.08826764,.00009076,53.1581,252.6344,63.4062,296.7022,0,U,52503,999,22955,.11519932E-3,.1545E-4,0
STARLINK-3958,2022-051C,2026-06-29T17:19:44.961888,15.08831442,.00011902,53.1611,346.0157,95.2544,264.8583,0,U,52535,999,22835,.74782388E-4,.902E-5,0
STARLINK-3964,2022-051D,2026-06-29T20:25:13.434816,15.08832527,.00012559,53.1614,345.4362,91.9241,268.1894,0,U,52536,999,22837,.36140129E-4,.287E-5,0
STARLINK-3897,2022-051E,2026-06-30T19:44:10.894848,15.08832171,.0001271,53.1607,340.8772,86.8433,273.2704,0,U,52537,999,22852,.6022E-4,.67E-5,0
STARLINK-3933,2022-051F,2026-06-30T20:00:01.999008,15.34365509,.0001379,53.1592,339.2390,68.8516,127.0003,0,U,52538,999,567,.16049E-2,.54182E-3,0
STARLINK-3757,2022-051G,2026-06-29T20:14:37.299264,15.08835192,.00011602,53.1603,345.4700,93.5152,266.5972,0,U,52539,999,22837,.11023654E-3,.1467E-4,0
STARLINK-3940,2022-051H,2026-06-30T19:48:35.422272,15.09420910,.0001124,53.1612,341.0888,107.6159,252.4955,0,U,52540,999,22852,.44764E-2,.72845E-3,0
STARLINK-3845,2022-051J,2026-06-30T20:00:01.999008,15.16136004,.0001241,53.1597,345.8726,90.3873,219.3395,0,U,52541,999,583,.35824E-2,.70273E-3,0
STARLINK-3937,2022-051K,2026-06-30T20:00:01.999008,15.30280718,.0001246,53.1590,339.5685,77.5360,32.5578,0,U,52542,999,568,.32432E-2,.97202E-3,0
STARLINK-3926,2022-051L,2026-06-30T19:54:11.938176,15.09157365,.0003163,53.1598,341.0323,44.0733,316.0510,0,U,52543,999,22852,.22178E-2,.35498E-3,0
STARLINK-3944,2022-051M,2026-06-29T20:32:30.459840,15.08836747,.00010864,53.1598,350.4257,86.1894,273.9222,0,U,52544,999,22830,.3102726E-4,.206E-5,0
STARLINK-3948,2022-051P,2026-06-30T20:00:01.999008,15.28861021,.0001388,53.1595,339.4643,96.0325,101.6844,0,U,52546,999,583,.38105E-2,.109553E-2,0
STARLINK-3931,2022-051R,2026-06-30T20:00:01.999008,15.12938810,.0001569,53.1607,340.9733,56.7213,168.8420,0,U,52548,999,553,.40705E-2,.73011E-3,0
STARLINK-3935,2022-051S,2026-06-30T19:33:27.824832,15.08927283,.0001589,53.1614,341.1052,113.2247,246.8912,0,U,52549,999,22852,.59318E-3,.9188E-4,0
STARLINK-3965,2022-051T,2026-06-30T03:23:51.956448,15.08813797,.00012267,53.1610,344.1325,95.8539,264.2592,0,U,52550,999,22842,.30343911E-3,.4541E-4,0
STARLINK-3969,2022-051U,2026-06-29T21:12:54.155232,15.08856051,.00011244,53.1606,345.2902,89.2878,270.8242,0,U,52551,999,22838,-.24358392E-3,-.4164E-4,0
STARLINK-3966,2022-051V,2026-06-30T20:00:01.999008,15.13585451,.0002488,53.1608,341.1393,77.9445,81.3032,0,U,52552,999,558,.59432E-2,.109249E-2,0
STARLINK-3858,2022-051W,2026-06-30T19:29:46.200192,16.31547934,.0011931,53.2103,312.7267,305.0154,54.9770,0,U,52553,999,22892,.81244E-3,.4518188E-1,.12146E-4
STARLINK-3770,2022-051X,2026-06-30T18:42:37.071072,15.08830561,.0001263,53.1617,346.2631,87.3020,272.8116,0,U,52554,999,22844,.16233E-3,.2296E-4,0
STARLINK-3943,2022-051AA,2026-06-29T17:30:20.646432,15.08837236,.00010285,53.1603,345.9854,82.1238,277.9870,0,U,52557,999,22836,.87986755E-4,.1113E-4,0
STARLINK-3953,2022-051AC,2026-06-30T19:13:46.519968,15.08833433,.0001272,53.1601,331.3461,91.7289,268.3848,0,U,52559,999,22865,.90548E-4,.1153E-4,0
STARLINK-3956,2022-051AD,2026-06-30T02:58:41.198016,15.08831938,.00010912,53.1595,334.2083,86.1484,273.9632,0,U,52560,999,22855,.6442903E-5,-.185E-5,0
STARLINK-3955,2022-051AE,2026-06-30T20:00:01.999008,15.13974380,.0001356,53.1592,345.9424,65.4540,327.8611,0,U,52561,999,583,.34415E-2,.63421E-3,0
STARLINK-3957,2022-051AF,2026-06-30T20:00:01.999008,15.33127383,.0000906,53.1593,329.5317,56.8299,285.6115,0,U,52562,999,567,.25495E-1,.890043E-2,0
STARLINK-3942,2022-051AG,2026-06-30T20:00:01.999008,15.14966700,.0000665,53.1595,345.9269,34.8337,347.4468,0,U,52563,999,583,.3363E-2,.63734E-3,0
STARLINK-3959,2022-051AH,2026-06-30T12:01:15.060000,15.08830608,.00009239,53.1602,347.5241,76.7902,283.3193,0,U,52564,999,22840,.31396668E-4,.212E-5,0
STARLINK-3911,2022-051AJ,2026-06-30T02:53:23.644320,15.08829091,.00015232,53.1619,334.2273,92.3459,267.7706,0,U,52565,999,22855,.19023448E-4,.15E-6,0
STARLINK-3938,2022-051AK,2026-06-30T20:00:01.999008,15.14000519,.0001058,53.1607,345.9595,65.1816,100.7305,0,U,52566,999,578,.37509E-2,.69256E-3,0
