[
  {
    "name": "STARLINK-3907",
    "noradId": "52501",
    "line1": "1 52501U 22049BC  26181.59786838 -.00000163  00000+0  78737-5 0  9999",
    "line2": "2 52501  53.1595 261.8745 0001047  86.9095 273.2017 15.08829142229448"
  },
  {
    "name": "STARLINK-3912",
    "noradId": "52502",
    "line1": "1 52502U 22049BD  26181.59145127  .00000306  00000+0  37317-4 0  9996",
    "line2": "2 52502  53.1597 252.1363 0001129  92.2517 267.8604 15.08834607229577"
  },
  {
    "name": "STARLINK-3861",
    "noradId": "52503",
    "line1": "1 52503U 22049BE  26181.44793410  .00001545  00000+0  11520-3 0  9998",
    "line2": "2 52503  53.1581 252.6344 0000907  63.4062 296.7022 15.08826764229551"
  },
  {
    "name": "STARLINK-3958",
    "noradId": "52535",
    "line1": "1 52535U 22051C   26180.72204817  .00000902  00000+0  74782-4 0  9990",
    "line2": "2 52535  53.1611 346.0157 0001190  95.2544 264.8583 15.08831442228357"
  },
  {
    "name": "STARLINK-3964",
    "noradId": "52536",
    "line1": "1 52536U 22051D   26180.85084994  .00000287  00000+0  36140-4 0  9999",
    "line2": "2 52536  53.1614 345.4362 0001255  91.9241 268.1894 15.08832527228370"
  },
  {
    "name": "STARLINK-3897",
    "noradId": "52537",
    "line1": "1 52537U 22051E   26181.82234832  .00000670  00000+0  60220-4 0  9998",
    "line2": "2 52537  53.1607 340.8772 0001271  86.8433 273.2704 15.08832171228520"
  },
  {
    "name": "STARLINK-3933",
    "noradId": "52538",
    "line1": "1 52538U 22051F   26181.83335647  .00054182  00000+0  16049-2 0  9991",
    "line2": "2 52538  53.1592 339.2390 0001379  68.8516 127.0003 15.34365509  5675"
  },
  {
    "name": "STARLINK-3757",
    "noradId": "52539",
    "line1": "1 52539U 22051G   26180.84348726  .00001467  00000+0  11024-3 0  9991",
    "line2": "2 52539  53.1603 345.4700 0001160  93.5152 266.5972 15.08835192228371"
  },
  {
    "name": "STARLINK-3940",
    "noradId": "52540",
    "line1": "1 52540U 22051H   26181.82540998  .00072845  00000+0  44764-2 0  9991",
    "line2": "2 52540  53.1612 341.0888 0001124 107.6159 252.4955 15.09420910228527"
  },
  {
    "name": "STARLINK-3845",
    "noradId": "52541",
    "line1": "1 52541U 22051J   26181.83335647  .00070273  00000+0  35824-2 0  9996",
    "line2": "2 52541  53.1597 345.8726 0001241  90.3873 219.3395 15.16136004  5837"
  },
  {
    "name": "STARLINK-3937",
    "noradId": "52542",
    "line1": "1 52542U 22051K   26181.83335647  .00097202  00000+0  32432-2 0  9990",
    "line2": "2 52542  53.1590 339.5685 0001246  77.5360  32.5578 15.30280718  5687"
  },
  {
    "name": "STARLINK-3926",
    "noradId": "52543",
    "line1": "1 52543U 22051L   26181.82930484  .00035498  00000+0  22178-2 0  9995",
    "line2": "2 52543  53.1598 341.0323 0003163  44.0733 316.0510 15.09157365228529"
  },
  {
    "name": "STARLINK-3944",
    "noradId": "52544",
    "line1": "1 52544U 22051M   26180.85590810  .00000206  00000+0  31027-4 0  9997",
    "line2": "2 52544  53.1598 350.4257 0001086  86.1894 273.9222 15.08836747228301"
  },
  {
    "name": "STARLINK-3948",
    "noradId": "52546",
    "line1": "1 52546U 22051P   26181.83335647  .00109553  00000+0  38105-2 0  9990",
    "line2": "2 52546  53.1595 339.4643 0001388  96.0325 101.6844 15.28861021  5833"
  },
  {
    "name": "STARLINK-3931",
    "noradId": "52548",
    "line1": "1 52548U 22051R   26181.83335647  .00073011  00000+0  40705-2 0  9990",
    "line2": "2 52548  53.1607 340.9733 0001569  56.7213 168.8420 15.12938810  5532"
  },
  {
    "name": "STARLINK-3935",
    "noradId": "52549",
    "line1": "1 52549U 22051S   26181.81490538  .00009188  00000+0  59318-3 0  9995",
    "line2": "2 52549  53.1614 341.1052 0001589 113.2247 246.8912 15.08927283228522"
  },
  {
    "name": "STARLINK-3965",
    "noradId": "52550",
    "line1": "1 52550U 22051T   26181.14157357  .00004541  00000+0  30344-3 0  9998",
    "line2": "2 52550  53.1610 344.1325 0001226  95.8539 264.2592 15.08813797228424"
  },
  {
    "name": "STARLINK-3969",
    "noradId": "52551",
    "line1": "1 52551U 22051U   26180.88396013 -.00004164  00000+0 -24358-3 0  9994",
    "line2": "2 52551  53.1606 345.2902 0001124  89.2878 270.8242 15.08856051228383"
  },
  {
    "name": "STARLINK-3966",
    "noradId": "52552",
    "line1": "1 52552U 22051V   26181.83335647  .00109249  00000+0  59432-2 0  9995",
    "line2": "2 52552  53.1608 341.1393 0002488  77.9445  81.3032 15.13585451  5589"
  },
  {
    "name": "STARLINK-3858",
    "noradId": "52553",
    "line1": "1 52553U 22051W   26181.81234028  .04518188  12146-4  81244-3 0  9991",
    "line2": "2 52553  53.2103 312.7267 0011931 305.0154  54.9770 16.31547934228925"
  },
  {
    "name": "STARLINK-3770",
    "noradId": "52554",
    "line1": "1 52554U 22051X   26181.77959573  .00002296  00000+0  16233-3 0  9997",
    "line2": "2 52554  53.1617 346.2631 0001263  87.3020 272.8116 15.08830561228447"
  },
  {
    "name": "STARLINK-3943",
    "noradId": "52557",
    "line1": "1 52557U 22051AA  26180.72940563  .00001113  00000+0  87987-4 0  9995",
    "line2": "2 52557  53.1603 345.9854 0001028  82.1238 277.9870 15.08837236228361"
  },
  {
    "name": "STARLINK-3953",
    "noradId": "52559",
    "line1": "1 52559U 22051AC  26181.80123287  .00001153  00000+0  90548-4 0  9994",
    "line2": "2 52559  53.1601 331.3461 0001272  91.7289 268.3848 15.08833433228653"
  },
  {
    "name": "STARLINK-3956",
    "noradId": "52560",
    "line1": "1 52560U 22051AD  26181.12408794 -.00000185  00000+0  64429-5 0  9995",
    "line2": "2 52560  53.1595 334.2083 0001091  86.1484 273.9632 15.08831938228553"
  },
  {
    "name": "STARLINK-3955",
    "noradId": "52561",
    "line1": "1 52561U 22051AE  26181.83335647  .00063421  00000+0  34415-2 0  9990",
    "line2": "2 52561  53.1592 345.9424 0001356  65.4540 327.8611 15.13974380  5831"
  },
  {
    "name": "STARLINK-3957",
    "noradId": "52562",
    "line1": "1 52562U 22051AF  26181.83335647  .00890043  00000+0  25495-1 0  9996",
    "line2": "2 52562  53.1593 329.5317 0000906  56.8299 285.6115 15.33127383  5674"
  },
  {
    "name": "STARLINK-3942",
    "noradId": "52563",
    "line1": "1 52563U 22051AG  26181.83335647  .00063734  00000+0  33630-2 0  9997",
    "line2": "2 52563  53.1595 345.9269 0000665  34.8337 347.4468 15.14966700  5835"
  },
  {
    "name": "STARLINK-3959",
    "noradId": "52564",
    "line1": "1 52564U 22051AH  26181.50086875  .00000212  00000+0  31397-4 0  9990",
    "line2": "2 52564  53.1602 347.5241 0000923  76.7902 283.3193 15.08830608228406"
  },
  {
    "name": "STARLINK-3911",
    "noradId": "52565",
    "line1": "1 52565U 22051AJ  26181.12041255  .00000015  00000+0  19023-4 0  9995",
    "line2": "2 52565  53.1619 334.2273 0001523  92.3459 267.7706 15.08829091228557"
  },
  {
    "name": "STARLINK-3938",
    "noradId": "52566",
    "line1": "1 52566U 22051AK  26181.83335647  .00069256  00000+0  37509-2 0  9994",
    "line2": "2 52566  53.1607 345.9595 0001058  65.1816 100.7305 15.14000519  5781"
  }
]